start=new Date('2022-09-23T00:00:00.000Z').valueOf();
sats=[{"TIME_SYSTEM":"UTC","MEAN_MOTION":"15.07355317","TLE_LINE2":"2 45779  53.0542 109.9455 0002257 117.4037 242.7182 15.07355317126265","OBJECT_NAME":"STARLINK-1492","MEAN_MOTION_DDOT":"0.0000000000000","REV_AT_EPOCH":"12626","INCLINATION":"53.0542","OBJECT_TYPE":"PAYLOAD","ELEMENT_SET_NO":"999","SEMIMAJOR_AXIS":"6922.422","MEAN_ELEMENT_THEORY":"SGP4","EPHEMERIS_TYPE":"0","LAUNCH_DATE":"2020-06-13","RCS_SIZE":"LARGE","CLASSIFICATION_TYPE":"U","RA_OF_ASC_NODE":"109.9455","OBJECT_ID":"2020-038BB","MEAN_MOTION_DOT":"0.00008819","REF_FRAME":"TEME","APOAPSIS":"545.850","TLE_LINE1":"1 45779U 20038BB  22265.88909339  .00008819  00000-0  59480-3 0  9996","SITE":"AFETR","PERIOD":"95.532","DECAY_DATE":null,"CENTER_NAME":"EARTH","MEAN_ANOMALY":"242.7182","ARG_OF_PERICENTER":"117.4037","PERIAPSIS":"542.725","COUNTRY_CODE":"US","BSTAR":"0.00059480000000","GP_ID":"213256503","EPOCH":"2022-09-22T21:20:17.668896","NORAD_CAT_ID":"45779","ECCENTRICITY":"0.00022570","FILE":"3580594"},{"FILE":"3580594","ECCENTRICITY":"0.00013940","NORAD_CAT_ID":"45780","EPOCH":"2022-09-22T20:14:26.596896","GP_ID":"213257255","BSTAR":"0.00010299000000","COUNTRY_CODE":"US","PERIAPSIS":"546.274","ARG_OF_PERICENTER":"84.8305","CENTER_NAME":"EARTH","MEAN_ANOMALY":"275.2843","PERIOD":"95.593","DECAY_DATE":null,"SITE":"AFETR","TLE_LINE1":"1 45780U 20038BC  22265.84336339  .00001253  00000-0  10299-3 0  9998","APOAPSIS":"548.205","REF_FRAME":"TEME","OBJECT_ID":"2020-038BC","MEAN_MOTION_DOT":"0.00001253","RA_OF_ASC_NODE":"110.2374","CLASSIFICATION_TYPE":"U","RCS_SIZE":"LARGE","LAUNCH_DATE":"2020-06-13","EPHEMERIS_TYPE":"0","MEAN_ELEMENT_THEORY":"SGP4","SEMIMAJOR_AXIS":"6925.375","ELEMENT_SET_NO":"999","OBJECT_TYPE":"PAYLOAD","INCLINATION":"53.0525","REV_AT_EPOCH":"12625","TLE_LINE2":"2 45780  53.0525 110.2374 0001394  84.8305 275.2843 15.06391451126251","OBJECT_NAME":"STARLINK-1496","MEAN_MOTION_DDOT":"0.0000000000000","MEAN_MOTION":"15.06391451","TIME_SYSTEM":"UTC"},{"SEMIMAJOR_AXIS":"6925.325","MEAN_ELEMENT_THEORY":"SGP4","EPHEMERIS_TYPE":"0","LAUNCH_DATE":"2020-06-13","RCS_SIZE":"LARGE","CLASSIFICATION_TYPE":"U","TIME_SYSTEM":"UTC","MEAN_MOTION":"15.06407580","TLE_LINE2":"2 45781  53.0545 110.1365 0001637 100.6713 259.4461 15.06407580126265","MEAN_MOTION_DDOT":"0.0000000000000","OBJECT_NAME":"STARLINK-1497","REV_AT_EPOCH":"12626","INCLINATION":"53.0545","OBJECT_TYPE":"PAYLOAD","ELEMENT_SET_NO":"999","ARG_OF_PERICENTER":"100.6713","PERIAPSIS":"546.057","COUNTRY_CODE":"US","BSTAR":"0.00004483900000","GP_ID":"213257996","EPOCH":"2022-09-22T20:51:34.825248","NORAD_CAT_ID":"45781","ECCENTRICITY":"0.00016370","FILE":"3580594","RA_OF_ASC_NODE":"110.1365","OBJECT_ID":"2020-038BD","MEAN_MOTION_DOT":"0.00000386","REF_FRAME":"TEME","APOAPSIS":"548.324","TLE_LINE1":"1 45781U 20038BD  22265.86915307  .00000386  00000-0  44839-4 0  9993","SITE":"AFETR","PERIOD":"95.592","DECAY_DATE":null,"CENTER_NAME":"EARTH","MEAN_ANOMALY":"259.4461"},{"FILE":"3580594","ECCENTRICITY":"0.00023230","NORAD_CAT_ID":"45782","GP_ID":"213256746","EPOCH":"2022-09-22T21:25:20.641728","BSTAR":"0.00058841000000","COUNTRY_CODE":"US","PERIAPSIS":"540.919","ARG_OF_PERICENTER":"100.7083","MEAN_ANOMALY":"259.4168","CENTER_NAME":"EARTH","PERIOD":"95.495","DECAY_DATE":null,"SITE":"AFETR","TLE_LINE1":"1 45782U 20038BE  22265.89260002  .00008862  00000-0  58841-3 0  9996","APOAPSIS":"544.134","REF_FRAME":"TEME","MEAN_MOTION_DOT":"0.00008862","OBJECT_ID":"2020-038BE","RA_OF_ASC_NODE":"109.6626","RCS_SIZE":"LARGE","CLASSIFICATION_TYPE":"U","LAUNCH_DATE":"2020-06-13","EPHEMERIS_TYPE":"0","MEAN_ELEMENT_THEORY":"SGP4","SEMIMAJOR_AXIS":"6920.661","ELEMENT_SET_NO":"999","OBJECT_TYPE":"PAYLOAD","REV_AT_EPOCH":"12628","INCLINATION":"53.0526","OBJECT_NAME":"STARLINK-1498","TLE_LINE2":"2 45782  53.0526 109.6626 0002323 100.7083 259.4168 15.07930668126287","MEAN_MOTION_DDOT":"0.0000000000000","MEAN_MOTION":"15.07930668","TIME_SYSTEM":"UTC"},{"RA_OF_ASC_NODE":"110.4469","MEAN_MOTION_DOT":"0.00001923","OBJECT_ID":"2020-038BF","APOAPSIS":"548.107","REF_FRAME":"TEME","TLE_LINE1":"1 45783U 20038BF  22265.79911761  .00001923  00000-0  14794-3 0  9991","SITE":"AFETR","CENTER_NAME":"EARTH","MEAN_ANOMALY":"277.2024","DECAY_DATE":null,"PERIOD":"95.592","ARG_OF_PERICENTER":"82.9110","COUNTRY_CODE":"US","PERIAPSIS":"546.335","BSTAR":"0.00014794000000","EPOCH":"2022-09-22T19:10:43.761504","GP_ID":"213233909","ECCENTRICITY":"0.00012790","NORAD_CAT_ID":"45783","FILE":"3580417","MEAN_MOTION":"15.06397554","TIME_SYSTEM":"UTC","TLE_LINE2":"2 45783  53.0542 110.4469 0001279  82.9110 277.2024 15.06397554127181","OBJECT_NAME":"STARLINK-1505","MEAN_MOTION_DDOT":"0.0000000000000","INCLINATION":"53.0542","REV_AT_EPOCH":"12718","ELEMENT_SET_NO":"999","OBJECT_TYPE":"PAYLOAD","MEAN_ELEMENT_THEORY":"SGP4","SEMIMAJOR_AXIS":"6925.356","EPHEMERIS_TYPE":"0","CLASSIFICATION_TYPE":"U","RCS_SIZE":"LARGE","LAUNCH_DATE":"2020-06-13"},{"EPHEMERIS_TYPE":"0","SEMIMAJOR_AXIS":"6925.348","MEAN_ELEMENT_THEORY":"SGP4","LAUNCH_DATE":"2020-06-13","CLASSIFICATION_TYPE":"U","RCS_SIZE":"LARGE","TIME_SYSTEM":"UTC","MEAN_MOTION":"15.06400078","OBJECT_TYPE":"PAYLOAD","ELEMENT_SET_NO":"999","INCLINATION":"53.0549","REV_AT_EPOCH":"12626","OBJECT_NAME":"STARLINK-1510","TLE_LINE2":"2 45784  53.0549 110.2499 0001452  76.5571 283.5580 15.06400078126264","MEAN_MOTION_DDOT":"0.0000000000000","BSTAR":"0.00008601000000","PERIAPSIS":"546.208","COUNTRY_CODE":"US","ARG_OF_PERICENTER":"76.5571","FILE":"3580594","NORAD_CAT_ID":"45784","ECCENTRICITY":"0.00014520","GP_ID":"213257746","EPOCH":"2022-09-22T20:09:07.425792","REF_FRAME":"TEME","APOAPSIS":"548.219","OBJECT_ID":"2020-038BG","MEAN_MOTION_DOT":"0.00001000","RA_OF_ASC_NODE":"110.2499","DECAY_DATE":null,"PERIOD":"95.592","CENTER_NAME":"EARTH","MEAN_ANOMALY":"283.5580","SITE":"AFETR","TLE_LINE1":"1 45784U 20038BG  22265.83966928  .00001000  00000-0  86010-4 0  9999"},{"FILE":"3580594","ECCENTRICITY":"0.00013720","NORAD_CAT_ID":"45785","EPOCH":"2022-09-22T21:18:08.088768","GP_ID":"213257505","BSTAR":"0.00007349600000","COUNTRY_CODE":"US","PERIAPSIS":"546.258","ARG_OF_PERICENTER":"70.7850","MEAN_ANOMALY":"289.3288","CENTER_NAME":"EARTH","PERIOD":"95.592","DECAY_DATE":null,"SITE":"AFETR","TLE_LINE1":"1 45785U 20038BH  22265.88759362  .00000813  00000-0  73496-4 0  9992","APOAPSIS":"548.158","REF_FRAME":"TEME","OBJECT_ID":"2020-038BH","MEAN_MOTION_DOT":"0.00000813","RA_OF_ASC_NODE":"110.0551","CLASSIFICATION_TYPE":"U","RCS_SIZE":"LARGE","LAUNCH_DATE":"2020-06-13","EPHEMERIS_TYPE":"0","MEAN_ELEMENT_THEORY":"SGP4","SEMIMAJOR_AXIS":"6925.343","ELEMENT_SET_NO":"999","OBJECT_TYPE":"PAYLOAD","REV_AT_EPOCH":"12627","INCLINATION":"53.0547","TLE_LINE2":"2 45785  53.0547 110.0551 0001372  70.7850 289.3288 15.06401826126279","OBJECT_NAME":"STARLINK-1512","MEAN_MOTION_DDOT":"0.0000000000000","MEAN_MOTION":"15.06401826","TIME_SYSTEM":"UTC"},{"MEAN_ELEMENT_THEORY":"SGP4","SEMIMAJOR_AXIS":"6925.379","EPHEMERIS_TYPE":"0","RCS_SIZE":"LARGE","CLASSIFICATION_TYPE":"U","LAUNCH_DATE":"2020-06-13","MEAN_MOTION":"15.06390101","TIME_SYSTEM":"UTC","TLE_LINE2":"2 45786  53.0531 110.1174 0001421  95.0690 265.0461 15.06390101126279","MEAN_MOTION_DDOT":"0.0000000000000","OBJECT_NAME":"STARLINK-1513","INCLINATION":"53.0531","REV_AT_EPOCH":"12627","ELEMENT_SET_NO":"999","OBJECT_TYPE":"PAYLOAD","ARG_OF_PERICENTER":"95.0690","COUNTRY_CODE":"US","PERIAPSIS":"546.260","BSTAR":"-0.00005349400000","GP_ID":"213256254","EPOCH":"2022-09-22T20:56:54.684960","ECCENTRICITY":"0.00014210","NORAD_CAT_ID":"45786","FILE":"3580594","RA_OF_ASC_NODE":"110.1174","MEAN_MOTION_DOT":"-0.00001078","OBJECT_ID":"2020-038BJ","APOAPSIS":"548.228","REF_FRAME":"TEME","TLE_LINE1":"1 45786U 20038BJ  22265.87285515 -.00001078  00000-0 -53494-4 0  9998","SITE":"AFETR","CENTER_NAME":"EARTH","MEAN_ANOMALY":"265.0461","DECAY_DATE":null,"PERIOD":"95.593"},{"OBJECT_NAME":"STARLINK-1517","TLE_LINE2":"2 45787  53.0540 110.0871 0001377  76.0026 284.1116 15.06392506126275","MEAN_MOTION_DDOT":"0.0000000000000","ELEMENT_SET_NO":"999","OBJECT_TYPE":"PAYLOAD","INCLINATION":"53.0540","REV_AT_EPOCH":"12627","MEAN_MOTION":"15.06392506","TIME_SYSTEM":"UTC","CLASSIFICATION_TYPE":"U","RCS_SIZE":"LARGE","LAUNCH_DATE":"2020-06-13","EPHEMERIS_TYPE":"0","MEAN_ELEMENT_THEORY":"SGP4","SEMIMAJOR_AXIS":"6925.372","SITE":"AFETR","TLE_LINE1":"1 45787U 20038BK  22265.88022120 -.00000063  00000-0  14693-4 0  9991","CENTER_NAME":"EARTH","MEAN_ANOMALY":"284.1116","PERIOD":"95.593","DECAY_DATE":null,"MEAN_MOTION_DOT":"-0.00000063","OBJECT_ID":"2020-038BK","RA_OF_ASC_NODE":"110.0871","APOAPSIS":"548.190","REF_FRAME":"TEME","GP_ID":"213256504","EPOCH":"2022-09-22T21:07:31.111680","FILE":"3580594","ECCENTRICITY":"0.00013770","NORAD_CAT_ID":"45787","COUNTRY_CODE":"US","PERIAPSIS":"546.283","ARG_OF_PERICENTER":"76.0026","BSTAR":"0.00001469300000"},{"OBJECT_NAME":"STARLINK-1522","TLE_LINE2":"2 46027  53.0581  41.0965 0001410  78.7487 281.3661 15.06396732118363","MEAN_MOTION_DDOT":"0.0000000000000","OBJECT_TYPE":"PAYLOAD","ELEMENT_SET_NO":"999","INCLINATION":"53.0581","REV_AT_EPOCH":"11836","TIME_SYSTEM":"UTC","MEAN_MOTION":"15.06396732","LAUNCH_DATE":"2020-08-07","RCS_SIZE":"LARGE","CLASSIFICATION_TYPE":"U","EPHEMERIS_TYPE":"0","SEMIMAJOR_AXIS":"6925.359","MEAN_ELEMENT_THEORY":"SGP4","SITE":"AFETR","TLE_LINE1":"1 46027U 20055A   22265.65445669  .00000803  00000-0  72822-4 0  9999","PERIOD":"95.592","DECAY_DATE":null,"MEAN_ANOMALY":"281.3661","CENTER_NAME":"EARTH","MEAN_MOTION_DOT":"0.00000803","OBJECT_ID":"2020-055A","RA_OF_ASC_NODE":"41.0965","REF_FRAME":"TEME","APOAPSIS":"548.200","EPOCH":"2022-09-22T15:42:25.058016","GP_ID":"213257529","FILE":"3580594","NORAD_CAT_ID":"46027","ECCENTRICITY":"0.00014100","PERIAPSIS":"546.247","COUNTRY_CODE":"US","ARG_OF_PERICENTER":"78.7487","BSTAR":"0.00007282200000"}];
